[{"OBJECT_NAME":"STARLINK-34558","OBJECT_ID":"2025-142AB","EPOCH":"2026-03-09T23:27:12.494880","MEAN_MOTION":14.98317882,"ECCENTRICITY":0.00022839,"INCLINATION":70.001,"RA_OF_ASC_NODE":313.7355,"ARG_OF_PERICENTER":257.8018,"MEAN_ANOMALY":102.2886,"EPHEMERIS_TYPE":0,"CLASSIFICATION_TYPE":"U","NORAD_CAT_ID":64721,"ELEMENT_SET_NO":999,"REV_AT_EPOCH":3950,"BSTAR":0.0004854361,"MEAN_MOTION_DOT":5.702e-5,"MEAN_MOTION_DDOT":0},{"OBJECT_NAME":"CZ-6A DEB","OBJECT_ID":"2022-151BY","EPOCH":"2026-03-09T19:54:31.094784","MEAN_MOTION":14.84736827,"ECCENTRICITY":0.00926882,"INCLINATION":98.6307,"RA_OF_ASC_NODE":160.4734,"ARG_OF_PERICENTER":65.7458,"MEAN_ANOMALY":295.3404,"EPHEMERIS_TYPE":0,"CLASSIFICATION_TYPE":"U","NORAD_CAT_ID":54329,"ELEMENT_SET_NO":999,"REV_AT_EPOCH":17696,"BSTAR":0.0019746466,"MEAN_MOTION_DOT":0.00018045,"MEAN_MOTION_DDOT":0}]
